[{"OBJECT_NAME":"STARLINK-35427","OBJECT_ID":"2025-236AA","EPOCH":"2026-03-09T09:20:17.861568","MEAN_MOTION":15.30196492,"ECCENTRICITY":0.00012001,"INCLINATION":53.1575,"RA_OF_ASC_NODE":105.6194,"ARG_OF_PERICENTER":90.9,"MEAN_ANOMALY":269.2138,"EPHEMERIS_TYPE":0,"CLASSIFICATION_TYPE":"U","NORAD_CAT_ID":66110,"ELEMENT_SET_NO":999,"REV_AT_EPOCH":2289,"BSTAR":0.00095732028,"MEAN_MOTION_DOT":0.00028098,"MEAN_MOTION_DDOT":0},{"OBJECT_NAME":"KUIPER-00208","OBJECT_ID":"2026-030M","EPOCH":"2026-03-09T16:08:08.024640","MEAN_MOTION":15.32208734,"ECCENTRICITY":0.00155248,"INCLINATION":51.8846,"RA_OF_ASC_NODE":219.6993,"ARG_OF_PERICENTER":57.3146,"MEAN_ANOMALY":302.9333,"EPHEMERIS_TYPE":0,"CLASSIFICATION_TYPE":"U","NORAD_CAT_ID":67775,"ELEMENT_SET_NO":999,"REV_AT_EPOCH":508,"BSTAR":0.0013882708,"MEAN_MOTION_DOT":0.00043852,"MEAN_MOTION_DDOT":0}]
