STARLINK-35427          
1 66110U 25236AA  26068.38909562  .00028098  00000+0  95732-3 0  9991
2 66110  53.1575 105.6194 0001200  90.9000 269.2138 15.30196492 22891
KUIPER-00208            
1 67775U 26030M   26068.67231509  .00043852  00000+0  13883-2 0  9994
2 67775  51.8846 219.6993 0015525  57.3146 302.9333 15.32208734  5080
